CCSDS_OMM_VERS = 2.0
CREATION_DATE  = 
ORIGINATOR     = 

OBJECT_NAME    = STARLINK-35944
OBJECT_ID      = 2025-286D
CENTER_NAME    = EARTH
REF_FRAME      = TEME
TIME_SYSTEM    = UTC
MEAN_ELEMENT_THEORY = SGP/SGP4

EPOCH          = 2026-01-04T04:00:01.998720
MEAN_MOTION    = 15.42477621
ECCENTRICITY   = .0001237
INCLINATION    = 53.1595
RA_OF_ASC_NODE = 300.5636
ARG_OF_PERICENTER = 73.3899
MEAN_ANOMALY   = 301.5382

EPHEMERIS_TYPE = 0
CLASSIFICATION_TYPE = U
NORAD_CAT_ID   = 66928
ELEMENT_SET_NO = 999
REV_AT_EPOCH   = 559
BSTAR          = -.66938E-1
MEAN_MOTION_DOT = -.2591561E-1
MEAN_MOTION_DDOT = 0

CCSDS_OMM_VERS = 2.0
CREATION_DATE  = 
ORIGINATOR     = 

OBJECT_NAME    = STARLINK-36169
OBJECT_ID      = 2025-286E
CENTER_NAME    = EARTH
REF_FRAME      = TEME
TIME_SYSTEM    = UTC
MEAN_ELEMENT_THEORY = SGP/SGP4

EPOCH          = 2026-01-04T04:00:01.998720
MEAN_MOTION    = 15.39568724
ECCENTRICITY   = .0001393
INCLINATION    = 53.1591
RA_OF_ASC_NODE = 300.6617
ARG_OF_PERICENTER = 105.5817
MEAN_ANOMALY   = 220.3131

EPHEMERIS_TYPE = 0
CLASSIFICATION_TYPE = U
NORAD_CAT_ID   = 66929
ELEMENT_SET_NO = 999
REV_AT_EPOCH   = 559
BSTAR          = .17815E-2
MEAN_MOTION_DOT = .71407E-3
MEAN_MOTION_DDOT = 0

CCSDS_OMM_VERS = 2.0
CREATION_DATE  = 
ORIGINATOR     = 

OBJECT_NAME    = STARLINK-36206
OBJECT_ID      = 2025-286F
CENTER_NAME    = EARTH
REF_FRAME      = TEME
TIME_SYSTEM    = UTC
MEAN_ELEMENT_THEORY = SGP/SGP4

EPOCH          = 2026-01-03T23:10:08.581440
MEAN_MOTION    = 15.49455803
ECCENTRICITY   = .0003836
INCLINATION    = 53.1599
RA_OF_ASC_NODE = 301.4679
ARG_OF_PERICENTER = 154.8906
MEAN_ANOMALY   = 205.2290

EPHEMERIS_TYPE = 0
CLASSIFICATION_TYPE = U
NORAD_CAT_ID   = 66930
ELEMENT_SET_NO = 999
REV_AT_EPOCH   = 547
BSTAR          = .27906E-2
MEAN_MOTION_DOT = .158791E-2
MEAN_MOTION_DDOT = 0

CCSDS_OMM_VERS = 2.0
CREATION_DATE  = 
ORIGINATOR     = 

OBJECT_NAME    = STARLINK-36130
OBJECT_ID      = 2025-286G
CENTER_NAME    = EARTH
REF_FRAME      = TEME
TIME_SYSTEM    = UTC
MEAN_ELEMENT_THEORY = SGP/SGP4

EPOCH          = 2026-01-04T01:22:00.816960
MEAN_MOTION    = 15.39569661
ECCENTRICITY   = .0001709
INCLINATION    = 53.1614
RA_OF_ASC_NODE = 301.3321
ARG_OF_PERICENTER = 136.2708
MEAN_ANOMALY   = 223.8432

EPHEMERIS_TYPE = 0
CLASSIFICATION_TYPE = U
NORAD_CAT_ID   = 66931
ELEMENT_SET_NO = 999
REV_AT_EPOCH   = 548
BSTAR          = .14344E-2
MEAN_MOTION_DOT = .57314E-3
MEAN_MOTION_DDOT = 0

CCSDS_OMM_VERS = 2.0
CREATION_DATE  = 
ORIGINATOR     = 

OBJECT_NAME    = STARLINK-36177
OBJECT_ID      = 2025-286H
CENTER_NAME    = EARTH
REF_FRAME      = TEME
TIME_SYSTEM    = UTC
MEAN_ELEMENT_THEORY = SGP/SGP4

EPOCH          = 2026-01-04T04:00:01.998720
MEAN_MOTION    = 15.39546793
ECCENTRICITY   = .0001386
INCLINATION    = 53.1595
RA_OF_ASC_NODE = 300.6083
ARG_OF_PERICENTER = 93.8000
MEAN_ANOMALY   = 257.8869

EPHEMERIS_TYPE = 0
CLASSIFICATION_TYPE = U
NORAD_CAT_ID   = 66932
ELEMENT_SET_NO = 999
REV_AT_EPOCH   = 559
BSTAR          = .20423E-2
MEAN_MOTION_DOT = .81974E-3
MEAN_MOTION_DDOT = 0

CCSDS_OMM_VERS = 2.0
CREATION_DATE  = 
ORIGINATOR     = 

OBJECT_NAME    = STARLINK-36157
OBJECT_ID      = 2025-286J
CENTER_NAME    = EARTH
REF_FRAME      = TEME
TIME_SYSTEM    = UTC
MEAN_ELEMENT_THEORY = SGP/SGP4

EPOCH          = 2026-01-03T06:06:52.191072
MEAN_MOTION    = 15.49386556
ECCENTRICITY   = .0000147
INCLINATION    = 53.1603
RA_OF_ASC_NODE = 304.8537
ARG_OF_PERICENTER = 328.0965
MEAN_ANOMALY   = 32.0035

EPHEMERIS_TYPE = 0
CLASSIFICATION_TYPE = U
NORAD_CAT_ID   = 66933
ELEMENT_SET_NO = 999
REV_AT_EPOCH   = 536
BSTAR          = .30092E-2
MEAN_MOTION_DOT = .171097E-2
MEAN_MOTION_DDOT = 0

CCSDS_OMM_VERS = 2.0
CREATION_DATE  = 
ORIGINATOR     = 

OBJECT_NAME    = STARLINK-36153
OBJECT_ID      = 2025-286K
CENTER_NAME    = EARTH
REF_FRAME      = TEME
TIME_SYSTEM    = UTC
MEAN_ELEMENT_THEORY = SGP/SGP4

EPOCH          = 2026-01-04T04:00:01.998720
MEAN_MOTION    = 15.39573538
ECCENTRICITY   = .0001241
INCLINATION    = 53.1589
RA_OF_ASC_NODE = 300.7119
ARG_OF_PERICENTER = 85.9768
MEAN_ANOMALY   = 214.1655

EPHEMERIS_TYPE = 0
CLASSIFICATION_TYPE = U
NORAD_CAT_ID   = 66934
ELEMENT_SET_NO = 999
REV_AT_EPOCH   = 559
BSTAR          = .17959E-2
MEAN_MOTION_DOT = .72004E-3
MEAN_MOTION_DDOT = 0

CCSDS_OMM_VERS = 2.0
CREATION_DATE  = 
ORIGINATOR     = 

OBJECT_NAME    = STARLINK-36127
OBJECT_ID      = 2025-286L
CENTER_NAME    = EARTH
REF_FRAME      = TEME
TIME_SYSTEM    = UTC
MEAN_ELEMENT_THEORY = SGP/SGP4

EPOCH          = 2026-01-04T01:28:41.985120
MEAN_MOTION    = 15.39572837
ECCENTRICITY   = .0001215
INCLINATION    = 53.1610
RA_OF_ASC_NODE = 301.3587
ARG_OF_PERICENTER = 120.7264
MEAN_ANOMALY   = 239.3861

EPHEMERIS_TYPE = 0
CLASSIFICATION_TYPE = U
NORAD_CAT_ID   = 66935
ELEMENT_SET_NO = 999
REV_AT_EPOCH   = 548
BSTAR          = .1545E-2
MEAN_MOTION_DOT = .61804E-3
MEAN_MOTION_DDOT = 0

CCSDS_OMM_VERS = 2.0
CREATION_DATE  = 
ORIGINATOR     = 

OBJECT_NAME    = STARLINK-36160
OBJECT_ID      = 2025-286M
CENTER_NAME    = EARTH
REF_FRAME      = TEME
TIME_SYSTEM    = UTC
MEAN_ELEMENT_THEORY = SGP/SGP4

EPOCH          = 2026-01-04T04:00:01.998720
MEAN_MOTION    = 15.42936090
ECCENTRICITY   = .0000952
INCLINATION    = 53.1596
RA_OF_ASC_NODE = 300.5145
ARG_OF_PERICENTER = 100.7579
MEAN_ANOMALY   = 298.0597

EPHEMERIS_TYPE = 0
CLASSIFICATION_TYPE = U
NORAD_CAT_ID   = 66936
ELEMENT_SET_NO = 999
REV_AT_EPOCH   = 559
BSTAR          = -.51494E-1
MEAN_MOTION_DOT = -.2044617E-1
MEAN_MOTION_DDOT = 0

CCSDS_OMM_VERS = 2.0
CREATION_DATE  = 
ORIGINATOR     = 

OBJECT_NAME    = STARLINK-36165
OBJECT_ID      = 2025-286N
CENTER_NAME    = EARTH
REF_FRAME      = TEME
TIME_SYSTEM    = UTC
MEAN_ELEMENT_THEORY = SGP/SGP4

EPOCH          = 2026-01-04T02:12:28.433664
MEAN_MOTION    = 15.49314114
ECCENTRICITY   = .0001392
INCLINATION    = 53.1595
RA_OF_ASC_NODE = 300.8347
ARG_OF_PERICENTER = 52.8867
MEAN_ANOMALY   = 307.2269

EPHEMERIS_TYPE = 0
CLASSIFICATION_TYPE = U
NORAD_CAT_ID   = 66937
ELEMENT_SET_NO = 999
REV_AT_EPOCH   = 549
BSTAR          = .18769E-2
MEAN_MOTION_DOT = .105374E-2
MEAN_MOTION_DDOT = 0

CCSDS_OMM_VERS = 2.0
CREATION_DATE  = 
ORIGINATOR     = 

OBJECT_NAME    = STARLINK-36155
OBJECT_ID      = 2025-286P
CENTER_NAME    = EARTH
REF_FRAME      = TEME
TIME_SYSTEM    = UTC
MEAN_ELEMENT_THEORY = SGP/SGP4

EPOCH          = 2026-01-03T08:00:03.000384
MEAN_MOTION    = 15.49379009
ECCENTRICITY   = .00010904
INCLINATION    = 53.1586
RA_OF_ASC_NODE = 304.4574
ARG_OF_PERICENTER = 88.1775
MEAN_ANOMALY   = 0.2121

EPHEMERIS_TYPE = 0
CLASSIFICATION_TYPE = U
NORAD_CAT_ID   = 66938
ELEMENT_SET_NO = 999
REV_AT_EPOCH   = 546
BSTAR          = -.28275309E-2
MEAN_MOTION_DOT = -.155008E-2
MEAN_MOTION_DDOT = 0

CCSDS_OMM_VERS = 2.0
CREATION_DATE  = 
ORIGINATOR     = 

OBJECT_NAME    = STARLINK-36154
OBJECT_ID      = 2025-286Q
CENTER_NAME    = EARTH
REF_FRAME      = TEME
TIME_SYSTEM    = UTC
MEAN_ELEMENT_THEORY = SGP/SGP4

EPOCH          = 2026-01-04T02:55:59.050272
MEAN_MOTION    = 15.39579635
ECCENTRICITY   = .0001008
INCLINATION    = 53.1610
RA_OF_ASC_NODE = 301.0252
ARG_OF_PERICENTER = 84.3071
MEAN_ANOMALY   = 275.8049

EPHEMERIS_TYPE = 0
CLASSIFICATION_TYPE = U
NORAD_CAT_ID   = 66939
ELEMENT_SET_NO = 999
REV_AT_EPOCH   = 549
BSTAR          = .18437E-2
MEAN_MOTION_DOT = .73968E-3
MEAN_MOTION_DDOT = 0

CCSDS_OMM_VERS = 2.0
CREATION_DATE  = 
ORIGINATOR     = 

OBJECT_NAME    = STARLINK-36121
OBJECT_ID      = 2025-286R
CENTER_NAME    = EARTH
REF_FRAME      = TEME
TIME_SYSTEM    = UTC
MEAN_ELEMENT_THEORY = SGP/SGP4

EPOCH          = 2026-01-04T02:49:17.698944
MEAN_MOTION    = 15.39576299
ECCENTRICITY   = .0001542
INCLINATION    = 53.1629
RA_OF_ASC_NODE = 300.9961
ARG_OF_PERICENTER = 70.8613
MEAN_ANOMALY   = 289.2559

EPHEMERIS_TYPE = 0
CLASSIFICATION_TYPE = U
NORAD_CAT_ID   = 66940
ELEMENT_SET_NO = 999
REV_AT_EPOCH   = 549
BSTAR          = .16317E-2
MEAN_MOTION_DOT = .65334E-3
MEAN_MOTION_DDOT = 0

CCSDS_OMM_VERS = 2.0
CREATION_DATE  = 
ORIGINATOR     = 

OBJECT_NAME    = STARLINK-36088
OBJECT_ID      = 2025-286S
CENTER_NAME    = EARTH
REF_FRAME      = TEME
TIME_SYSTEM    = UTC
MEAN_ELEMENT_THEORY = SGP/SGP4

EPOCH          = 2026-01-04T02:01:46.327872
MEAN_MOTION    = 15.49307210
ECCENTRICITY   = .0001338
INCLINATION    = 53.1603
RA_OF_ASC_NODE = 300.7851
ARG_OF_PERICENTER = 82.6251
MEAN_ANOMALY   = 277.4910

EPHEMERIS_TYPE = 0
CLASSIFICATION_TYPE = U
NORAD_CAT_ID   = 66941
ELEMENT_SET_NO = 999
REV_AT_EPOCH   = 549
BSTAR          = .19897E-2
MEAN_MOTION_DOT = .111802E-2
MEAN_MOTION_DDOT = 0

CCSDS_OMM_VERS = 2.0
CREATION_DATE  = 
ORIGINATOR     = 

OBJECT_NAME    = STARLINK-36100
OBJECT_ID      = 2025-286T
CENTER_NAME    = EARTH
REF_FRAME      = TEME
TIME_SYSTEM    = UTC
MEAN_ELEMENT_THEORY = SGP/SGP4

EPOCH          = 2026-01-04T04:00:01.998720
MEAN_MOTION    = 15.39568832
ECCENTRICITY   = .0000877
INCLINATION    = 53.1591
RA_OF_ASC_NODE = 300.7132
ARG_OF_PERICENTER = 66.8971
MEAN_ANOMALY   = 231.3793

EPHEMERIS_TYPE = 0
CLASSIFICATION_TYPE = U
NORAD_CAT_ID   = 66942
ELEMENT_SET_NO = 999
REV_AT_EPOCH   = 552
BSTAR          = .23301E-2
MEAN_MOTION_DOT = .93797E-3
MEAN_MOTION_DDOT = 0

